{
  "type": "FeatureCollection",
  "features": [
    {
      "type": "Feature",
      "properties": {
        "routeId": "acapulco",
        "routeVariantId": "acapulco_vuelta",
        "direction": "vuelta",
        "name": "Acapulco Vuelta"
      },
      "geometry": {
        "type": "LineString",
        "coordinates": [
          [-116.60498, 31.833922],
          [-116.60464, 31.832191],
          [-116.605569, 31.832065],
          [-116.606017, 31.834329],
          [-116.606291, 31.835678],
          [-116.606468, 31.836553]
        ]
      }
    }
  ]
}
