{
  "type": "FeatureCollection",
  "features": [
    {
      "type": "Feature",
      "properties": {
        "routeId": "gomez_morin",
        "routeVariantId": "gomez_morin_vuelta",
        "direction": "vuelta",
        "name": "Gómez Morín Vuelta"
      },
      "geometry": {
        "type": "LineString",
        "coordinates": [
          [
            -116.545398,
            31.879076
          ],
          [
            -116.545439,
            31.879072
          ],
          [
            -116.545531,
            31.879063
          ],
          [
            -116.545619,
            31.879045
          ],
          [
            -116.546424,
            31.878871
          ],
          [
            -116.547041,
            31.878758
          ],
          [
            -116.54733,
            31.878726
          ],
          [
            -116.547872,
            31.878688
          ],
          [
            -116.548894,
            31.878634
          ],
          [
            -116.549442,
            31.878593
          ],
          [
            -116.55,
            31.878564
          ],
          [
            -116.550509,
            31.878564
          ],
          [
            -116.551089,
            31.878592
          ],
          [
            -116.551725,
            31.878659
          ],
          [
            -116.552504,
            31.878731
          ],
          [
            -116.553581,
            31.87883
          ],
          [
            -116.554116,
            31.87888
          ],
          [
            -116.554446,
            31.878915
          ],
          [
            -116.554647,
            31.87899
          ],
          [
            -116.554694,
            31.879007
          ],
          [
            -116.555055,
            31.879204
          ],
          [
            -116.555097,
            31.879248
          ],
          [
            -116.555354,
            31.879474
          ],
          [
            -116.555719,
            31.879757
          ],
          [
            -116.555942,
            31.879858
          ],
          [
            -116.556346,
            31.879924
          ],
          [
            -116.556898,
            31.87988
          ],
          [
            -116.557777,
            31.879718
          ],
          [
            -116.559328,
            31.879428
          ],
          [
            -116.55963,
            31.879334
          ],
          [
            -116.559785,
            31.879261
          ],
          [
            -116.559897,
            31.87919
          ],
          [
            -116.560413,
            31.878832
          ],
          [
            -116.561268,
            31.878222
          ],
          [
            -116.562146,
            31.877595
          ],
          [
            -116.562668,
            31.877217
          ],
          [
            -116.562952,
            31.87702
          ],
          [
            -116.563207,
            31.876889
          ],
          [
            -116.563731,
            31.87665
          ],
          [
            -116.563984,
            31.87657
          ],
          [
            -116.565337,
            31.876151
          ],
          [
            -116.566102,
            31.875885
          ],
          [
            -116.566976,
            31.875581
          ],
          [
            -116.567652,
            31.875345
          ],
          [
            -116.568085,
            31.875188
          ],
          [
            -116.568296,
            31.875099
          ],
          [
            -116.568463,
            31.875034
          ],
          [
            -116.56863,
            31.874985
          ],
          [
            -116.568968,
            31.874888
          ],
          [
            -116.569678,
            31.874688
          ],
          [
            -116.570752,
            31.874386
          ]
        ]
      }
    },
    {
      "type": "Feature",
      "properties": {
        "routeId": "gomez_morin",
        "routeVariantId": "gomez_morin_vuelta",
        "direction": "vuelta",
        "name": "Gómez Morín Vuelta"
      },
      "geometry": {
        "type": "LineString",
        "coordinates": [
          [
            -116.570748,
            31.874385
          ],
          [
            -116.571421,
            31.874172
          ],
          [
            -116.571508,
            31.874163
          ],
          [
            -116.571546,
            31.874178
          ],
          [
            -116.572046,
            31.874307
          ],
          [
            -116.572526,
            31.874419
          ],
          [
            -116.572978,
            31.87453
          ],
          [
            -116.573207,
            31.874581
          ],
          [
            -116.573414,
            31.874628
          ],
          [
            -116.573744,
            31.874684
          ],
          [
            -116.574236,
            31.874694
          ],
          [
            -116.574936,
            31.874637
          ],
          [
            -116.575558,
            31.874521
          ],
          [
            -116.576058,
            31.874363
          ],
          [
            -116.57699,
            31.874062
          ],
          [
            -116.577478,
            31.87392
          ],
          [
            -116.577951,
            31.873774
          ],
          [
            -116.578896,
            31.87347
          ],
          [
            -116.579914,
            31.873075
          ],
          [
            -116.580236,
            31.872878
          ],
          [
            -116.580451,
            31.872701
          ],
          [
            -116.580645,
            31.872497
          ],
          [
            -116.580793,
            31.872338
          ],
          [
            -116.580947,
            31.872139
          ],
          [
            -116.581065,
            31.871948
          ],
          [
            -116.581154,
            31.871758
          ],
          [
            -116.581353,
            31.871346
          ],
          [
            -116.581465,
            31.87113
          ],
          [
            -116.581547,
            31.870944
          ],
          [
            -116.581731,
            31.870563
          ],
          [
            -116.581935,
            31.870186
          ],
          [
            -116.582173,
            31.869824
          ],
          [
            -116.582411,
            31.869464
          ],
          [
            -116.582507,
            31.869287
          ],
          [
            -116.582615,
            31.869076
          ],
          [
            -116.582728,
            31.868706
          ],
          [
            -116.582796,
            31.868327
          ],
          [
            -116.5828,
            31.868034
          ],
          [
            -116.582786,
            31.867805
          ],
          [
            -116.582626,
            31.86679
          ],
          [
            -116.582549,
            31.866289
          ],
          [
            -116.582474,
            31.865764
          ],
          [
            -116.582355,
            31.864824
          ],
          [
            -116.582422,
            31.864617
          ],
          [
            -116.582495,
            31.864448
          ],
          [
            -116.582605,
            31.864268
          ],
          [
            -116.582731,
            31.864103
          ],
          [
            -116.582932,
            31.863916
          ],
          [
            -116.583059,
            31.863801
          ],
          [
            -116.58322,
            31.86371
          ],
          [
            -116.583414,
            31.863608
          ],
          [
            -116.583597,
            31.863519
          ],
          [
            -116.583652,
            31.863483
          ],
          [
            -116.583533,
            31.862833
          ],
          [
            -116.583476,
            31.862509
          ],
          [
            -116.583411,
            31.862195
          ],
          [
            -116.593571,
            31.860721
          ],
          [
            -116.593402,
            31.859781
          ],
          [
            -116.599634,
            31.858891
          ],
          [
            -116.600021,
            31.858853
          ],
          [
            -116.600444,
            31.858793
          ],
          [
            -116.601215,
            31.858669
          ],
          [
            -116.60275,
            31.858434
          ],
          [
            -116.604367,
            31.858197
          ],
          [
            -116.606035,
            31.857971
          ],
          [
            -116.606059,
            31.858006
          ],
          [
            -116.606084,
            31.858124
          ],
          [
            -116.606202,
            31.858736
          ],
          [
            -116.606271,
            31.85905
          ],
          [
            -116.606309,
            31.859214
          ],
          [
            -116.6065,
            31.859267
          ],
          [
            -116.606776,
            31.859367
          ],
          [
            -116.607059,
            31.859471
          ],
          [
            -116.607611,
            31.859674
          ],
          [
            -116.608723,
            31.860083
          ],
          [
            -116.610944,
            31.860891
          ],
          [
            -116.615373,
            31.862521
          ],
          [
            -116.614322,
            31.864604
          ],
          [
            -116.622834,
            31.867694
          ],
          [
            -116.623375,
            31.866687
          ],
          [
            -116.623451,
            31.866561
          ],
          [
            -116.623509,
            31.866433
          ],
          [
            -116.623629,
            31.866176
          ],
          [
            -116.62387,
            31.865655
          ],
          [
            -116.624405,
            31.864582
          ],
          [
            -116.623195,
            31.864148
          ],
          [
            -116.623711,
            31.863129
          ],
          [
            -116.62492,
            31.86354
          ]
        ]
      }
    },
    {
      "type": "Feature",
      "properties": {
        "routeId": "gomez_morin",
        "routeVariantId": "gomez_morin_vuelta",
        "direction": "vuelta",
        "name": "Gómez Morín Vuelta"
      },
      "geometry": {
        "type": "LineString",
        "coordinates": [
          [
            -116.624904,
            31.863631
          ],
          [
            -116.624904,
            31.863631
          ]
        ]
      }
    }
  ]
}
