{
  "type": "FeatureCollection",
  "features": [
    {
      "type": "Feature",
      "properties": {
        "routeId": "gomez_morin",
        "routeVariantId": "gomez_morin_ida",
        "direction": "ida",
        "name": "Gómez Morín Ida"
      },
      "geometry": {
        "type": "LineString",
        "coordinates": [
          [
            -116.624904,
            31.863631
          ],
          [
            -116.624904,
            31.863631
          ]
        ]
      }
    },
    {
      "type": "Feature",
      "properties": {
        "routeId": "gomez_morin",
        "routeVariantId": "gomez_morin_ida",
        "direction": "ida",
        "name": "Gómez Morín Ida"
      },
      "geometry": {
        "type": "LineString",
        "coordinates": [
          [
            -116.624929,
            31.863556
          ],
          [
            -116.622826,
            31.867687
          ],
          [
            -116.614322,
            31.864604
          ],
          [
            -116.615386,
            31.862514
          ],
          [
            -116.606509,
            31.859263
          ],
          [
            -116.606245,
            31.857978
          ],
          [
            -116.606164,
            31.857862
          ],
          [
            -116.606004,
            31.857854
          ],
          [
            -116.593369,
            31.859687
          ],
          [
            -116.593571,
            31.860721
          ],
          [
            -116.583398,
            31.862186
          ],
          [
            -116.583652,
            31.863483
          ],
          [
            -116.582012,
            31.863697
          ],
          [
            -116.581978,
            31.863717
          ],
          [
            -116.582016,
            31.863794
          ],
          [
            -116.582069,
            31.863909
          ],
          [
            -116.5821,
            31.86404
          ],
          [
            -116.582136,
            31.864293
          ],
          [
            -116.582221,
            31.864786
          ],
          [
            -116.58239,
            31.865785
          ],
          [
            -116.582705,
            31.867817
          ],
          [
            -116.582716,
            31.868062
          ],
          [
            -116.582715,
            31.868326
          ],
          [
            -116.582635,
            31.868698
          ],
          [
            -116.582525,
            31.869059
          ],
          [
            -116.582434,
            31.869255
          ],
          [
            -116.582323,
            31.869436
          ],
          [
            -116.582096,
            31.869789
          ],
          [
            -116.581643,
            31.870531
          ],
          [
            -116.581458,
            31.870933
          ],
          [
            -116.581372,
            31.871126
          ],
          [
            -116.581267,
            31.871328
          ],
          [
            -116.581077,
            31.871733
          ],
          [
            -116.580978,
            31.871925
          ],
          [
            -116.580859,
            31.87212
          ],
          [
            -116.580704,
            31.872313
          ],
          [
            -116.580535,
            31.872492
          ],
          [
            -116.580358,
            31.872661
          ],
          [
            -116.58014,
            31.87282
          ],
          [
            -116.579847,
            31.873004
          ],
          [
            -116.578851,
            31.873396
          ],
          [
            -116.577891,
            31.873701
          ],
          [
            -116.575985,
            31.874276
          ],
          [
            -116.575503,
            31.874424
          ],
          [
            -116.5749,
            31.874541
          ],
          [
            -116.57423,
            31.874592
          ],
          [
            -116.573717,
            31.874589
          ],
          [
            -116.573447,
            31.874544
          ],
          [
            -116.572567,
            31.874337
          ],
          [
            -116.57162,
            31.874088
          ],
          [
            -116.571534,
            31.874122
          ],
          [
            -116.571421,
            31.874172
          ],
          [
            -116.570748,
            31.874385
          ]
        ]
      }
    },
    {
      "type": "Feature",
      "properties": {
        "routeId": "gomez_morin",
        "routeVariantId": "gomez_morin_ida",
        "direction": "ida",
        "name": "Gómez Morín Ida"
      },
      "geometry": {
        "type": "LineString",
        "coordinates": [
          [
            -116.570752,
            31.874386
          ],
          [
            -116.569678,
            31.874688
          ],
          [
            -116.568968,
            31.874888
          ],
          [
            -116.56863,
            31.874985
          ],
          [
            -116.568463,
            31.875034
          ],
          [
            -116.568296,
            31.875099
          ],
          [
            -116.568085,
            31.875188
          ],
          [
            -116.567652,
            31.875345
          ],
          [
            -116.566976,
            31.875581
          ],
          [
            -116.566102,
            31.875885
          ],
          [
            -116.565337,
            31.876151
          ],
          [
            -116.563984,
            31.87657
          ],
          [
            -116.563731,
            31.87665
          ],
          [
            -116.563207,
            31.876889
          ],
          [
            -116.562952,
            31.87702
          ],
          [
            -116.562668,
            31.877217
          ],
          [
            -116.562146,
            31.877595
          ],
          [
            -116.561268,
            31.878222
          ],
          [
            -116.560413,
            31.878832
          ],
          [
            -116.559897,
            31.87919
          ],
          [
            -116.559785,
            31.879261
          ],
          [
            -116.55963,
            31.879334
          ],
          [
            -116.559328,
            31.879428
          ],
          [
            -116.557777,
            31.879718
          ],
          [
            -116.556898,
            31.87988
          ],
          [
            -116.556346,
            31.879924
          ],
          [
            -116.555942,
            31.879858
          ],
          [
            -116.555719,
            31.879757
          ],
          [
            -116.555354,
            31.879474
          ],
          [
            -116.555097,
            31.879248
          ],
          [
            -116.555055,
            31.879204
          ],
          [
            -116.554694,
            31.879007
          ],
          [
            -116.554647,
            31.87899
          ],
          [
            -116.554446,
            31.878915
          ],
          [
            -116.554116,
            31.87888
          ],
          [
            -116.553581,
            31.87883
          ],
          [
            -116.552504,
            31.878731
          ],
          [
            -116.551725,
            31.878659
          ],
          [
            -116.551089,
            31.878592
          ],
          [
            -116.550509,
            31.878564
          ],
          [
            -116.55,
            31.878564
          ],
          [
            -116.549442,
            31.878593
          ],
          [
            -116.548894,
            31.878634
          ],
          [
            -116.547872,
            31.878688
          ],
          [
            -116.54733,
            31.878726
          ],
          [
            -116.547041,
            31.878758
          ],
          [
            -116.546424,
            31.878871
          ],
          [
            -116.545619,
            31.879045
          ],
          [
            -116.545531,
            31.879063
          ],
          [
            -116.545439,
            31.879072
          ],
          [
            -116.545398,
            31.879076
          ],
          [
            -116.545344,
            31.879081
          ],
          [
            -116.545167,
            31.879125
          ],
          [
            -116.544752,
            31.879287
          ],
          [
            -116.544202,
            31.879531
          ],
          [
            -116.544206,
            31.87956
          ],
          [
            -116.544739,
            31.880485
          ],
          [
            -116.545391,
            31.881572
          ],
          [
            -116.544867,
            31.881789
          ],
          [
            -116.544331,
            31.882009
          ],
          [
            -116.543765,
            31.882239
          ],
          [
            -116.543216,
            31.882466
          ],
          [
            -116.542618,
            31.882713
          ],
          [
            -116.542126,
            31.882913
          ],
          [
            -116.541553,
            31.883143
          ],
          [
            -116.541017,
            31.883361
          ],
          [
            -116.540549,
            31.883546
          ],
          [
            -116.539976,
            31.8838
          ],
          [
            -116.539441,
            31.884015
          ],
          [
            -116.538941,
            31.884205
          ],
          [
            -116.538262,
            31.883148
          ],
          [
            -116.53813,
            31.882932
          ],
          [
            -116.537647,
            31.883138
          ],
          [
            -116.537271,
            31.883296
          ],
          [
            -116.537042,
            31.883387
          ],
          [
            -116.536864,
            31.883459
          ],
          [
            -116.536692,
            31.883056
          ],
          [
            -116.536463,
            31.882551
          ],
          [
            -116.537101,
            31.882275
          ],
          [
            -116.537587,
            31.882098
          ],
          [
            -116.538109,
            31.881899
          ],
          [
            -116.53865,
            31.881682
          ],
          [
            -116.539196,
            31.881465
          ],
          [
            -116.539685,
            31.881256
          ],
          [
            -116.540211,
            31.881058
          ],
          [
            -116.540781,
            31.880864
          ],
          [
            -116.54132,
            31.880665
          ],
          [
            -116.541902,
            31.880441
          ]
        ]
      }
    },
    {
      "type": "Feature",
      "properties": {
        "routeId": "gomez_morin",
        "routeVariantId": "gomez_morin_ida",
        "direction": "ida",
        "name": "Gómez Morín Ida"
      },
      "geometry": {
        "type": "LineString",
        "coordinates": [
          [
            -116.541899,
            31.880442
          ],
          [
            -116.542516,
            31.88021
          ],
          [
            -116.543047,
            31.880006
          ],
          [
            -116.543664,
            31.879778
          ],
          [
            -116.544197,
            31.879565
          ]
        ]
      }
    }
  ]
}
